     3.02           N: GNSS NAV DATA    M: Mixed            RINEX VERSION / TYPE
RTKCONV 2.4.3 b34                       20250912 090253 UTC PGM / RUN BY / DATE 
format: RTCM 3                                              COMMENT             
log: C:\Users\tjc\Desktop\gwo模糊度\rtklib_relpos\1h数据\rovCOMMENT             
                                                            END OF HEADER       
G01 2025 09 12 08 00 00  .345022417605D-03  .375166564481D-11  .000000000000D+00
      .140000000000D+02 -.862187500000D+02  .472948271622D-08  .244689622156D+01
     -.441074371338D-05  .738689908758D-03  .492669641972D-05  .515365867805D+04
      .460800000000D+06 -.109896063805D-06 -.140133127622D-01  .100582838058D-06
      .959281434311D+00  .281906250000D+03 -.128872549773D-01 -.833927593574D-08
     -.227509476683D-09  .100000000000D+01  .238300000000D+04  .000000000000D+00
      .200000000000D+01  .000000000000D+00 -.884756445885D-08  .526000000000D+03
      .459840000000D+06  .400000000000D+01
G02 2025 09 12 07 59 44 -.755554065108D-04  .886757334229D-11  .000000000000D+00
      .200000000000D+02 -.639687500000D+02  .456018995022D-08 -.236731615227D+01
     -.294297933578D-05  .165501351003D-01  .418722629547D-05  .515366131210D+04
      .460784000000D+06 -.100582838058D-06 -.177296810312D+00  .253319740295D-06
      .965042958690D+00  .298062500000D+03 -.934023852311D+00 -.803319175754D-08
     -.210365905441D-09  .100000000000D+01  .238300000000D+04  .000000000000D+00
      .200000000000D+01  .000000000000D+00 -.176951289177D-07  .200000000000D+02
      .459840000000D+06  .400000000000D+01
G10 2025 09 12 08 00 00 -.526231713593D-03 -.773070496507D-11  .000000000000D+00
      .220000000000D+02 -.479687500000D+02  .372051211712D-08 -.690088443422D+00
     -.265985727310D-05  .104800799163D-01  .954046845436D-05  .515365273476D+04
      .460800000000D+06  .372529029846D-07  .964598312054D+00  .197440385818D-06
      .990655571890D+00  .211906250000D+03 -.231908928473D+01 -.775246577846D-08
      .535736601294D-10  .100000000000D+01  .238300000000D+04  .000000000000D+00
      .200000000000D+01  .000000000000D+00  .232830643654D-08  .220000000000D+02
      .459840000000D+06  .400000000000D+01
G12 2025 09 12 07 59 44 -.598558224738D-03 -.102318153949D-11  .000000000000D+00
      .130000000000D+02  .843125000000D+02  .435732435719D-08  .354699000466D-01
      .414438545704D-05  .874723342713D-02  .109821557999D-04  .515364040756D+04
      .460784000000D+06 -.204890966415D-06 -.211600800199D+01  .242143869400D-07
      .959798751402D+00  .169781250000D+03  .152016499832D+01 -.802747723379D-08
     -.714315468392D-11  .100000000000D+01  .238300000000D+04  .000000000000D+00
      .200000000000D+01  .000000000000D+00 -.125728547573D-07  .130000000000D+02
      .459840000000D+06  .400000000000D+01
G15 2025 09 12 06 00 00  .337337609380D-03  .375166564481D-11  .000000000000D+00
      .360000000000D+02 -.646875000000D+01  .511057001861D-08  .150927521462D+01
     -.683590769768D-06  .166967911646D-01  .687502324581D-05  .515362845993D+04
      .453600000000D+06 -.987201929092D-07  .183760578233D+01 -.456348061562D-06
      .940199287417D+00  .239343750000D+03  .146084510241D+01 -.841070748258D-08
      .388230457071D-09  .100000000000D+01  .238300000000D+04  .000000000000D+00
      .200000000000D+01  .000000000000D+00 -.107102096081D-07  .360000000000D+02
      .459840000000D+06  .400000000000D+01
G16 2025 09 12 08 00 00  .101892743260D-03  .841282599140D-11  .000000000000D+00
      .470000000000D+02  .938125000000D+02  .432732310752D-08 -.177066734845D+01
      .468827784061D-05  .144984575454D-01  .939518213272D-05  .515356861687D+04
      .460800000000D+06  .258907675743D-06 -.209876194602D+01 -.121071934700D-06
      .959011702938D+00  .190218750000D+03  .895117364591D+00 -.772353600199D-08
      .145006040084D-09  .100000000000D+01  .238300000000D+04  .000000000000D+00
      .200000000000D+01  .000000000000D+00 -.107102096081D-07  .470000000000D+02
      .459840000000D+06  .400000000000D+01
G18 2025 09 12 08 00 00 -.554892234504D-03  .852651282912D-11  .000000000000D+00
      .710000000000D+02 -.658125000000D+02  .445482841863D-08  .151169530537D+01
     -.328198075294D-05  .561241921969D-02  .462494790554D-05  .515367932701D+04
      .460800000000D+06  .949949026108D-07 -.709047032255D-01  .968575477600D-07
      .973295452199D+00  .298031250000D+03 -.290713897707D+01 -.825427239501D-08
     -.296440919383D-09  .100000000000D+01  .238300000000D+04  .000000000000D+00
      .200000000000D+01  .000000000000D+00 -.838190317154D-08  .710000000000D+02
      .459840000000D+06  .400000000000D+01
G23 2025 09 12 08 00 00  .541432294995D-03  .579802872380D-11  .000000000000D+00
      .800000000000D+02 -.508750000000D+02  .384551732409D-08  .478230578235D+00
     -.268407166004D-05  .566124159377D-02  .933185219765D-05  .515367790413D+04
      .460800000000D+06  .633299350739D-07  .933331222043D+00  .502914190292D-07
      .985725652070D+00  .211437500000D+03 -.283505380282D+01 -.776460914142D-08
      .535736601294D-10  .100000000000D+01  .238300000000D+04  .000000000000D+00
      .200000000000D+01  .000000000000D+00 -.838190317154D-08  .336000000000D+03
      .459840000000D+06  .400000000000D+01
G24 2025 09 12 07 59 44 -.304296612740D-03  .112549969344D-10  .000000000000D+00
      .280000000000D+02 -.354375000000D+02  .526271921338D-08  .170147540485D+01
     -.209733843803D-05  .173431462608D-01  .758096575737D-05  .515366041374D+04
      .460784000000D+06 -.298023223877D-06  .294506214831D+01 -.312924385071D-06
      .934880728781D+00  .222937500000D+03  .109214221915D+01 -.843892294359D-08
     -.274654297597D-09  .100000000000D+01  .238300000000D+04  .000000000000D+00
      .200000000000D+01  .000000000000D+00  .232830643654D-08  .280000000000D+02
      .459840000000D+06  .400000000000D+01
G25 2025 09 12 08 00 00  .472126528621D-03 -.181898940355D-11  .000000000000D+00
      .690000000000D+02  .673750000000D+02  .471305346045D-08  .145871891921D-01
      .347010791302D-05  .124431385193D-01  .107157975435D-04  .515358017159D+04
      .460800000000D+06 -.149011611938D-06 -.220793027663D+01  .236555933952D-06
      .948114307669D+00  .172812500000D+03  .113049639970D+01 -.821141346690D-08
     -.407159816984D-10  .100000000000D+01  .238300000000D+04  .000000000000D+00
      .200000000000D+01  .000000000000D+00  .558793544769D-08  .690000000000D+02
      .459840000000D+06  .400000000000D+01
G26 2025 09 12 08 00 00 -.261962413788D-03 -.159161572810D-11  .000000000000D+00
      .230000000000D+02  .603437500000D+02  .501985195413D-08 -.856084745537D+00
      .331178307533D-05  .103386115516D-01  .986829400063D-05  .515363582420D+04
      .460800000000D+06  .219792127609D-06 -.227923581210D+01  .149011611938D-06
      .928930486506D+00  .169937500000D+03  .649066017325D+00 -.830213153139D-08
     -.721458623076D-10  .100000000000D+01  .238300000000D+04  .000000000000D+00
      .200000000000D+01  .000000000000D+00  .651925802231D-08  .230000000000D+02
      .459840000000D+06  .400000000000D+01
G27 2025 09 12 06 00 00 -.249380245805D-04 -.795807864051D-12  .000000000000D+00
      .800000000000D+01  .920625000000D+02  .485377360772D-08  .259931504347D+01
      .458396971226D-05  .135137418984D-01  .290945172310D-05  .515365825653D+04
      .453600000000D+06  .335276126862D-07 -.115109216356D+01 -.255182385445D-06
      .954818874393D+00  .321531250000D+03  .853058917465D+00 -.823820029697D-08
      .185007706314D-09  .100000000000D+01  .238300000000D+04  .000000000000D+00
      .200000000000D+01  .000000000000D+00  .186264514923D-08  .800000000000D+01
      .459840000000D+06  .400000000000D+01
G28 2025 09 12 08 00 00 -.638521276414D-03 -.113686837722D-12  .000000000000D+00
      .138000000000D+03 -.313125000000D+02  .450375902821D-08  .749793645629D+00
     -.150687992573D-05  .389408669434D-03  .808574259281D-05  .515367423630D+04
      .460800000000D+06 -.260770320892D-07  .302275109024D+01  .372529029846D-08
      .962006642958D+00  .222687500000D+03  .370088739201D+00 -.798461830569D-08
     -.308941440080D-09  .100000000000D+01  .238300000000D+04  .000000000000D+00
      .200000000000D+01  .000000000000D+00 -.931322574615D-08  .138000000000D+03
      .459840000000D+06  .400000000000D+01
G29 2025 09 12 06 00 00 -.456213485450D-03  .534328137292D-11  .000000000000D+00
      .670000000000D+02  .649687500000D+02  .479377110838D-08  .239717259280D+01
      .348314642906D-05  .334180670325D-02  .325217843056D-05  .515359822273D+04
      .453600000000D+06  .242143869400D-07 -.106328639703D+01  .156462192535D-06
      .964105800202D+00  .319625000000D+03  .278572113599D+01 -.839713548868D-08
      .946467995620D-10  .100000000000D+01  .238300000000D+04  .000000000000D+00
      .200000000000D+01  .000000000000D+00 -.977888703346D-08  .670000000000D+02
      .459840000000D+06  .400000000000D+01
G31 2025 09 12 07 59 44 -.192419160157D-03  .159161572810D-11  .000000000000D+00
      .900000000000D+01 -.249687500000D+02  .470412451710D-08 -.239498918171D+00
     -.111572444439D-05  .107853586087D-01  .828877091408D-05  .515371756935D+04
      .460784000000D+06 -.745058059692D-08  .307391418797D+01  .154599547386D-06
      .954861508215D+00  .217000000000D+03  .870745588266D+00 -.824320050525D-08
     -.293940815243D-09  .100000000000D+01  .238300000000D+04  .000000000000D+00
      .200000000000D+01  .000000000000D+00 -.130385160446D-07  .900000000000D+01
      .459840000000D+06  .400000000000D+01
